[{"OBJECT_NAME":"STARLINK-5331","OBJECT_ID":"2023-010M","EPOCH":"2026-03-09T08:48:14.967360","MEAN_MOTION":14.98330483,"ECCENTRICITY":0.00030101,"INCLINATION":70.0003,"RA_OF_ASC_NODE":45.4191,"ARG_OF_PERICENTER":270.5317,"MEAN_ANOMALY":89.5498,"EPHEMERIS_TYPE":0,"CLASSIFICATION_TYPE":"U","NORAD_CAT_ID":55280,"ELEMENT_SET_NO":999,"REV_AT_EPOCH":17272,"BSTAR":8.8162973e-5,"MEAN_MOTION_DOT":9.59e-6,"MEAN_MOTION_DDOT":0},{"OBJECT_NAME":"EZIE-B","OBJECT_ID":"2025-052AS","EPOCH":"2026-03-09T23:09:37.705536","MEAN_MOTION":14.96286279,"ECCENTRICITY":0.00040038,"INCLINATION":97.7009,"RA_OF_ASC_NODE":322.7783,"ARG_OF_PERICENTER":146.8572,"MEAN_ANOMALY":213.2901,"EPHEMERIS_TYPE":0,"CLASSIFICATION_TYPE":"U","NORAD_CAT_ID":63250,"ELEMENT_SET_NO":999,"REV_AT_EPOCH":5382,"BSTAR":0.00063815223,"MEAN_MOTION_DOT":7.158e-5,"MEAN_MOTION_DDOT":0}]
